OBJECT_NAME,OBJECT_ID,EPOCH,MEAN_MOTION,ECCENTRICITY,INCLINATION,RA_OF_ASC_NODE,ARG_OF_PERICENTER,MEAN_ANOMALY,EPHEMERIS_TYPE,CLASSIFICATION_TYPE,NORAD_CAT_ID,ELEMENT_SET_NO,REV_AT_EPOCH,BSTAR,MEAN_MOTION_DOT,MEAN_MOTION_DDOT
SL-12 R/B(2),1985-042D,2026-07-06T10:54:11.843136,14.22009605,.00371582,71.1060,196.8091,299.0376,212.9024,0,U,15772,999,13127,.76369855E-4,.122E-5,0
SL-14 R/B,1985-069B,2026-07-06T16:33:30.782304,14.86531040,.0019472,82.5270,273.0249,153.9915,206.2285,0,U,15945,999,19051,.44238E-4,.417E-5,0
SL-16 R/B,1985-097B,2026-07-06T14:59:28.620384,14.16613618,.000531,71.0021,250.1568,68.5950,40.2015,0,U,16182,999,10407,-.10186E-3,-.251E-5,0
SL-14 R/B,1986-006B,2026-07-06T08:45:10.797120,14.86963579,.00748993,82.5275,148.0663,238.5985,120.7892,0,U,16496,999,16684,.54368977E-4,.537E-5,0
COSMOS 1743,1986-034A,2026-07-06T08:35:34.446048,15.68872548,.00049771,82.5278,308.3228,205.5763,154.5253,0,U,16719,999,19879,.4775169E-3,.55015E-3,0
SL-14 R/B,1986-046B,2026-07-06T11:35:01.150944,14.85685873,.002274,82.4832,327.9419,191.6993,168.3698,0,U,16792,999,14404,.50507E-4,.464E-5,0
SL-14 R/B,1986-055B,2026-07-06T18:04:01.862112,14.85736431,.0017512,82.5198,14.7351,300.7097,169.4908,0,U,16882,999,13704,.42646E-4,.395E-5,0
AJISAI (EGS),1986-061A,2026-07-06T19:40:47.390016,12.44516697,.0011119,50.0096,87.0250,230.5283,240.7902,0,U,16908,999,48283,.22062E-4,-.94E-6,0
SL-14 R/B,1987-024B,2026-07-06T12:57:53.309376,14.86227174,.0017135,82.5290,341.0584,223.6864,136.2997,0,U,17567,999,10578,.45596E-4,.426E-5,0
COSMOS 1833,1987-027A,2026-07-06T20:36:16.597152,14.13063501,.0023658,70.9211,75.5227,22.3426,337.8720,0,U,17589,999,2715,.12436E-3,.185E-5,0
SL-16 R/B,1987-027B,2026-07-06T18:25:48.193824,14.17174551,.0007104,71.0031,25.5661,290.9158,69.1205,0,U,17590,999,3221,-.81735E-4,-.213E-5,0
SL-14 R/B,1987-038B,2026-07-06T17:32:45.663648,14.85457556,.0020503,82.5004,184.6624,128.2859,232.0206,0,U,17912,999,9690,.42666E-4,.394E-5,0
COSMOS 1844,1987-041A,2026-07-06T08:11:26.796768,14.14575657,.00318731,70.8986,143.9044,207.7746,152.1675,0,U,17973,999,2036,.22521367E-3,.386E-5,0
SL-14 R/B,1987-055B,2026-07-06T14:52:16.572000,14.85723532,.0020084,82.4978,236.9105,344.6058,15.4544,0,U,18153,999,8759,.36942E-4,.346E-5,0
COSMOS 1867,1987-060A,2026-07-06T16:39:45.222624,14.31517874,.0016958,65.0119,333.4268,282.0909,77.8275,0,U,18187,999,3697,.25473E-4,-.32E-6,0
SL-14 R/B,1988-001B,2026-07-06T16:34:09.441120,14.85623164,.0017384,82.5130,83.4255,200.1939,159.8592,0,U,18749,999,5969,.39277E-4,.365E-5,0
COSMOS 1933,1988-020A,2026-07-06T20:51:00.391392,15.18849941,.000553,82.5133,132.9441,128.1145,232.0589,0,U,18958,999,6831,.1613E-3,.3391E-4,0
SL-3 R/B,1988-032B,2026-07-06T20:22:51.978144,15.20989216,.0025671,97.5268,170.8723,174.0666,186.0878,0,U,19046,999,7021,.14865E-3,.3251E-4,0
SL-16 R/B,1988-039B,2026-07-06T17:01:25.311072,14.19631964,.0021076,71.0130,176.8779,162.9421,197.2417,0,U,19120,999,97527,.6227E-4,.84E-6,0
COSMOS 1953,1988-050A,2026-07-06T15:18:29.787264,15.30255230,.0012132,82.5065,38.4148,66.9975,293.2544,0,U,19210,999,5596,.18613E-3,.5491E-4,0
SL-8 R/B,1988-053B,2026-07-06T14:52:52.823712,14.38975405,.0019444,74.0468,253.2366,41.5569,67.3398,0,U,19257,999,99370,.66603E-4,.18E-5,0
COSMOS 1975,1988-093A,2026-07-06T20:20:05.430912,15.29593741,.0012535,82.5199,357.9208,108.2279,252.0326,0,U,19573,999,3761,.17473E-3,.5054E-4,0
SL-14 R/B,1988-093B,2026-07-06T17:54:11.465856,14.85756217,.0020767,82.5319,290.2833,8.5869,104.6543,0,U,19574,999,1869,.37545E-4,.352E-5,0
SL-16 R/B,1988-102B,2026-07-06T15:23:52.908576,14.16169290,.0014756,70.9996,261.2052,198.5490,161.5097,0,U,19650,999,94373,-.59525E-4,-.166E-5,0
INTERCOSMOS 24,1989-080A,2026-07-06T15:11:34.744992,12.59687388,.1187654,82.6047,26.9893,16.8163,346.8993,0,U,20261,999,68177,.15283E-3,.537E-5,0
SL-14 R/B,1989-080C,2026-07-06T04:51:03.148992,12.50577245,.12284196,82.5942,97.0912,273.8735,72.3117,0,U,20262,999,67496,.43175677E-4,.143E-5,0
DELTA 1 R/B,1989-089B,2026-07-06T12:45:31.910112,14.50744024,.0070528,97.0634,15.9941,106.7417,254.1536,0,U,20323,999,91296,.85282E-4,.312E-5,0
ARIANE 40 R/B,1990-005H,2026-07-06T17:02:09.286080,14.39937860,.0009683,98.2948,244.7180,199.5699,160.5119,0,U,20443,999,90993,.80885E-4,.212E-5,0
DELTA 2 R/B(1),1990-008B,2026-07-06T03:14:54.461184,15.72151296,.00629808,35.6001,108.6088,291.5668,67.8370,0,U,20453,999,94468,.72665703E-3,.113443E-2,0
COSMOS 2058,1990-010A,2026-07-06T18:57:17.576064,15.12130715,.0008043,82.4679,290.0239,285.8486,74.1857,0,U,20465,999,96023,.11579E-3,.2025E-4,0
SL-14 R/B,1990-010B,2026-07-06T20:40:04.127232,14.83659414,.0018148,82.5027,155.4682,266.9865,92.9273,0,U,20466,999,94615,.41173E-4,.364E-5,0
